ONEWEB-0522             
1 54140U 22138AD  26169.88627096 -.00000017  00000+0 -74090-4 0  9993
2 54140  87.9183 304.6184 0001720  99.9393 260.1934 13.19724188177037
ONEWEB-0523             
1 54141U 22138AE  26169.77172959  .00000026  00000+0  31771-4 0  9992
2 54141  87.9197 274.1248 0002776  96.9315 263.2134 13.20771107179514
ONEWEB-0524             
1 54142U 22138AF  26169.76163163  .00000057  00000+0  10777-3 0  9995
2 54142  87.9195 274.1237 0002652 114.6020 245.5390 13.20771328179517
ONEWEB-0525             
1 54143U 22138AG  26169.75358182 -.00000044  00000+0 -14226-3 0  9993
2 54143  87.9179 304.6526 0001571 108.0185 252.1119 13.19725675177038
ONEWEB-0526             
1 54144U 22138AH  26169.78675322  .00000065  00000+0  12904-3 0  9997
2 54144  87.9182 304.6465 0001828 103.2530 256.8807 13.19725761177010
ONEWEB-0529             
1 54145U 22138AJ  26169.78991584  .00000113  00000+0  25076-3 0  9997
2 54145  87.9173 304.6547 0001692 103.3030 256.8292 13.19724504177031
ONEWEB-0531             
1 54146U 22138AK  26169.74816962 -.00000016  00000+0 -72136-4 0  9994
2 54146  87.9193 274.1240 0002846 102.0366 258.1086 13.20772021179515
ONEWEB-0535             
1 54147U 22138AL  26169.89889766 -.00000013  00000+0 -65194-4 0  9996
2 54147  87.9181 304.6171 0002153  93.0827 267.0552 13.19725090177064
ONEWEB-0536             
1 54148U 22138AM  26169.73469359 -.00000026  00000+0 -96167-4 0  9990
2 54148  87.9183 274.1488 0002975 105.4918 254.6544 13.20771346179501
ONEWEB-0527             
1 54642U 22166A   26169.91764651  .00000095  00000+0  19832-3 0  9990
2 54642  87.9251 243.6531 0001996 100.3278 259.8081 13.21823226171760
ONEWEB-0528             
1 54643U 22166B   26169.91848623  .00000152  00000+0  33535-3 0  9993
2 54643  87.9252 243.6550 0001873 104.5167 255.6175 13.21824844171776
ONEWEB-0539             
1 54644U 22166C   26169.95634670 -.00000029  00000+0 -10161-3 0  9998
2 54644  87.9261 243.6194 0001949  92.8027 267.3330 13.21826956171778
ONEWEB-0540             
1 54645U 22166D   26169.73611987 -.00000090  00000+0 -24907-3 0  9992
2 54645  87.9253 243.6934 0002023  95.0432 265.0933 13.21827025171739
ONEWEB-0542             
1 54646U 22166E   26169.73934152 -.00000318  00000+0 -80235-3 0  9994
2 54646  87.9264 243.6610 0001943  89.6590 270.4767 13.21825831171746
ONEWEB-0545             
1 54647U 22166F   26169.70402931  .00001940  00000+0  46664-2 0  9994
2 54647  87.9258 243.6796 0001990  80.4333 279.7026 13.21817504171705
ONEWEB-0580             
1 54648U 22166G   26169.90586596 -.00000021  00000+0 -82857-4 0  9994
2 54648  87.9252 243.6397 0002213  88.4374 271.7014 13.21828172171778
ONEWEB-0582             
1 54649U 22166H   26169.94793731  .00000026  00000+0  32079-4 0  9994
2 54649  87.9252 243.6238 0002104  87.0674 273.0701 13.21826927171752
ONEWEB-0583             
1 54650U 22166J   26169.95970238 -.00000178  00000+0 -46361-3 0  9994
2 54650  87.9252 243.6449 0002018  95.7663 264.3701 13.21825878171764
ONEWEB-0584             
1 54651U 22166K   26169.90419593  .00000054  00000+0  98451-4 0  9991
2 54651  87.9246 243.6414 0002090  95.6576 264.4796 13.21826305171741
ONEWEB-0585             
1 54652U 22166L   26169.92775419  .00000027  00000+0  33618-4 0  9990
2 54652  87.9255 243.6239 0002008 103.6092 256.5266 13.21827056171758
ONEWEB-0586             
1 54653U 22166M   26169.94120082  .00000076  00000+0  15204-3 0  9997
2 54653  87.9256 243.6465 0001957  94.0132 266.1225 13.21824259171755
ONEWEB-0587             
1 54654U 22166N   26169.72420378 -.00000054  00000+0 -16113-3 0  9993
2 54654  87.9265 243.6633 0002057 108.6938 251.4419 13.21824399171882
ONEWEB-0589             
1 54655U 22166P   26169.93783788  .00000063  00000+0  11999-3 0  9999
2 54655  87.9251 243.6328 0002336  77.4331 282.7064 13.21824391171772
ONEWEB-0590             
1 54656U 22166Q   26169.73584570 -.00000050  00000+0 -15154-3 0  9991
2 54656  87.9261 243.6634 0002492  98.9631 261.1785 13.21827264171737
ONEWEB-0591             
1 54657U 22166R   26169.89916035 -.00000049  00000+0 -14935-3 0  9998
2 54657  87.9251 243.6455 0002119  98.3230 261.8145 13.21827245171784
ONEWEB-0592             
1 54658U 22166S   26169.90250818  .00000008  00000+0 -11655-4 0  9992
2 54658  87.9261 243.6231 0002021  98.7578 261.3785 13.21828716171665
ONEWEB-0593             
1 54659U 22166T   26169.92437507  .00000044  00000+0  74103-4 0  9993
2 54659  87.9254 243.6303 0001905  95.2841 264.8511 13.21824914171776
ONEWEB-0594             
1 54660U 22166U   26169.94457113  .00000182  00000+0  40890-3 0  9990
2 54660  87.9252 243.6425 0001913 103.4183 256.7164 13.21828086171791
ONEWEB-0595             
1 54661U 22166V   26169.92101049  .00000044  00000+0  75546-4 0  9997
2 54661  87.9261 243.6281 0002146 105.0734 255.0637 13.21827310171764
ONEWEB-0596             
1 54662U 22166W   26169.89579002  .00000005  00000+0 -19736-4 0  9999
2 54662  87.9255 243.6443 0002073 100.7026 259.4342 13.21827111171763
