OBJECT_NAME,OBJECT_ID,EPOCH,MEAN_MOTION,ECCENTRICITY,INCLINATION,RA_OF_ASC_NODE,ARG_OF_PERICENTER,MEAN_ANOMALY,EPHEMERIS_TYPE,CLASSIFICATION_TYPE,NORAD_CAT_ID,ELEMENT_SET_NO,REV_AT_EPOCH,BSTAR,MEAN_MOTION_DOT,MEAN_MOTION_DDOT
ONEWEB-0522,2022-138AD,2026-06-18T21:16:13.810944,13.19724188,.00017202,87.9183,304.6184,99.9393,260.1934,0,U,54140,999,17703,-.7408974E-4,-.17E-6,0
ONEWEB-0523,2022-138AE,2026-06-18T18:31:17.436576,13.20771107,.00027767,87.9197,274.1248,96.9315,263.2134,0,U,54141,999,17951,.31771422E-4,.26E-6,0
ONEWEB-0524,2022-138AF,2026-06-18T18:16:44.972832,13.20771328,.00026521,87.9195,274.1237,114.6020,245.5390,0,U,54142,999,17951,.10776846E-3,.57E-6,0
ONEWEB-0525,2022-138AG,2026-06-18T18:05:09.469248,13.19725675,.00015715,87.9179,304.6526,108.0185,252.1119,0,U,54143,999,17703,-.14226278E-3,-.44E-6,0
ONEWEB-0526,2022-138AH,2026-06-18T18:52:55.478208,13.19725761,.00018282,87.9182,304.6465,103.2530,256.8807,0,U,54144,999,17701,.12904443E-3,.65E-6,0
ONEWEB-0529,2022-138AJ,2026-06-18T18:57:28.728576,13.19724504,.00016924,87.9173,304.6547,103.3030,256.8292,0,U,54145,999,17703,.25076452E-3,.113E-5,0
ONEWEB-0531,2022-138AK,2026-06-18T17:57:21.855168,13.20772021,.00028463,87.9193,274.1240,102.0366,258.1086,0,U,54146,999,17951,-.72135565E-4,-.16E-6,0
ONEWEB-0535,2022-138AL,2026-06-18T21:34:24.757824,13.19725090,.00021533,87.9181,304.6171,93.0827,267.0552,0,U,54147,999,17706,-.65194119E-4,-.13E-6,0
ONEWEB-0536,2022-138AM,2026-06-18T17:37:57.526176,13.20771346,.00029754,87.9183,274.1488,105.4918,254.6544,0,U,54148,999,17950,-.96167276E-4,-.26E-6,0
ONEWEB-0527,2022-166A,2026-06-18T22:01:24.658464,13.21823226,.00019963,87.9251,243.6531,100.3278,259.8081,0,U,54642,999,17176,.19832306E-3,.95E-6,0
ONEWEB-0528,2022-166B,2026-06-18T22:02:37.210272,13.21824844,.00018734,87.9252,243.6550,104.5167,255.6175,0,U,54643,999,17177,.3353545E-3,.152E-5,0
ONEWEB-0539,2022-166C,2026-06-18T22:57:08.354880,13.21826956,.00019495,87.9261,243.6194,92.8027,267.3330,0,U,54644,999,17177,-.10161064E-3,-.29E-6,0
ONEWEB-0540,2022-166D,2026-06-18T17:40:00.756768,13.21827025,.00020236,87.9253,243.6934,95.0432,265.0933,0,U,54645,999,17173,-.24907275E-3,-.9E-6,0
ONEWEB-0542,2022-166E,2026-06-18T17:44:39.107328,13.21825831,.00019435,87.9264,243.6610,89.6590,270.4767,0,U,54646,999,17174,-.802347E-3,-.318E-5,0
ONEWEB-0545,2022-166F,2026-06-18T16:53:48.132384,13.21817504,.000199,87.9258,243.6796,80.4333,279.7026,0,U,54647,999,17170,.46663591E-2,.194E-4,0
ONEWEB-0580,2022-166G,2026-06-18T21:44:26.818944,13.21828172,.00022133,87.9252,243.6397,88.4374,271.7014,0,U,54648,999,17177,-.82856542E-4,-.21E-6,0
ONEWEB-0582,2022-166H,2026-06-18T22:45:01.783584,13.21826927,.00021046,87.9252,243.6238,87.0674,273.0701,0,U,54649,999,17175,.32078719E-4,.26E-6,0
ONEWEB-0583,2022-166J,2026-06-18T23:01:58.285632,13.21825878,.00020185,87.9252,243.6449,95.7663,264.3701,0,U,54650,999,17176,-.46360759E-3,-.178E-5,0
ONEWEB-0584,2022-166K,2026-06-18T21:42:02.528352,13.21826305,.00020908,87.9246,243.6414,95.6576,264.4796,0,U,54651,999,17174,.98450594E-4,.54E-6,0
ONEWEB-0585,2022-166L,2026-06-18T22:15:57.962016,13.21827056,.00020087,87.9255,243.6239,103.6092,256.5266,0,U,54652,999,17175,.33617943E-4,.27E-6,0
ONEWEB-0586,2022-166M,2026-06-18T22:35:19.750848,13.21824259,.00019579,87.9256,243.6465,94.0132,266.1225,0,U,54653,999,17175,.15203771E-3,.76E-6,0
ONEWEB-0587,2022-166N,2026-06-18T17:22:51.206592,13.21824399,.0002057,87.9265,243.6633,108.6938,251.4419,0,U,54654,999,17188,-.16112944E-3,-.54E-6,0
ONEWEB-0589,2022-166P,2026-06-18T22:30:29.192832,13.21824391,.00023362,87.9251,243.6328,77.4331,282.7064,0,U,54655,999,17177,.11998959E-3,.63E-6,0
ONEWEB-0590,2022-166Q,2026-06-18T17:39:37.068480,13.21827264,.00024921,87.9261,243.6634,98.9631,261.1785,0,U,54656,999,17173,-.15153927E-3,-.5E-6,0
ONEWEB-0591,2022-166R,2026-06-18T21:34:47.454240,13.21827245,.00021199,87.9251,243.6455,98.3230,261.8145,0,U,54657,999,17178,-.14934643E-3,-.49E-6,0
ONEWEB-0592,2022-166S,2026-06-18T21:39:36.706752,13.21828716,.00020215,87.9261,243.6231,98.7578,261.3785,0,U,54658,999,17166,-.11654838E-4,.8E-7,0
ONEWEB-0593,2022-166T,2026-06-18T22:11:06.006048,13.21824914,.00019053,87.9254,243.6303,95.2841,264.8511,0,U,54659,999,17177,.7410324E-4,.44E-6,0
ONEWEB-0594,2022-166U,2026-06-18T22:40:10.945632,13.21828086,.0001913,87.9252,243.6425,103.4183,256.7164,0,U,54660,999,17179,.40889538E-3,.182E-5,0
ONEWEB-0595,2022-166V,2026-06-18T22:06:15.306336,13.21827310,.00021463,87.9261,243.6281,105.0734,255.0637,0,U,54661,999,17176,.7554552E-4,.44E-6,0
ONEWEB-0596,2022-166W,2026-06-18T21:29:56.257728,13.21827111,.00020734,87.9255,243.6443,100.7026,259.4342,0,U,54662,999,17176,-.19735576E-4,.5E-7,0
